[{"OBJECT_NAME":"OBJECT H","OBJECT_ID":"2025-055H","EPOCH":"2026-03-09T23:29:50.051328","MEAN_MOTION":15.30330066,"ECCENTRICITY":0.00075967,"INCLINATION":97.636,"RA_OF_ASC_NODE":211.9572,"ARG_OF_PERICENTER":140.4354,"MEAN_ANOMALY":219.7441,"EPHEMERIS_TYPE":0,"CLASSIFICATION_TYPE":"U","NORAD_CAT_ID":63298,"ELEMENT_SET_NO":999,"REV_AT_EPOCH":5423,"BSTAR":0.0015582864,"MEAN_MOTION_DOT":0.00045901,"MEAN_MOTION_DDOT":0},{"OBJECT_NAME":"STARLINK-34459","OBJECT_ID":"2025-130M","EPOCH":"2026-03-09T09:00:23.976864","MEAN_MOTION":15.30151864,"ECCENTRICITY":0.00014547,"INCLINATION":53.1604,"RA_OF_ASC_NODE":90.0838,"ARG_OF_PERICENTER":92.9143,"MEAN_ANOMALY":267.2024,"EPHEMERIS_TYPE":0,"CLASSIFICATION_TYPE":"U","NORAD_CAT_ID":64449,"ELEMENT_SET_NO":999,"REV_AT_EPOCH":4065,"BSTAR":0.0001734373,"MEAN_MOTION_DOT":4.773e-5,"MEAN_MOTION_DDOT":0}]
